COSMOS 2528             
1 43657U 18082A   21234.10985659 -.00000059  00000-0  11915-4 0  9995
2 43657  67.1505  34.8706 0007760 253.3675 106.6558 13.96517287144144
CFOSAT                  
1 43662U 18083A   21234.08112873  .00000291  00000-0  18374-4 0  9992
2 43662  97.4486 257.6491 0001540  91.5445 343.5454 15.16358057155799
CUBEBEL-1 (BSUSAT-1)    
1 43666U 18083E   21234.16366920  .00001410  00000-0  69403-4 0  9992
2 43666  97.4527 261.7007 0013028 303.4119 129.8150 15.19578794155990
CHANGSHAGAOXIN (TY 4-01)
1 43669U 18083H   21234.07587872  .00001259  00000-0  64637-4 0  9991
2 43669  97.4449 258.4870 0009058 300.9760 134.9956 15.18323293155845
GOSAT 2                 
1 43672U 18084B   21234.07140430  .00000035  00000-0  10575-4 0  9994
2 43672  97.8940 345.5179 0001443  96.8197 263.3181 14.84225822152478
KHALIFASAT              
1 43676U 18084F   21233.88062123 -.00000056  00000-0  57000-7 0  9999
2 43676  97.9137 353.8766 0016437 158.9691 201.2197 14.89084568152904
TEN-KOH                 
1 43677U 18084G   21233.77608998  .00000177  00000-0  24010-4 0  9999
2 43677  97.9276 357.0102 0016142 174.4672 185.6727 14.90504343153033
DIWATA-2B               
1 43678U 18084H   21234.18790037  .00000486  00000-0  53928-4 0  9995
2 43678  97.9312 359.8363 0009697 185.2685 174.8445 14.91779638153236
STARS-AO                
1 43679U 18084J   21233.59400023  .00000185  00000-0  23668-4 0  9997
2 43679  97.9357   0.5578 0008771 193.5974 166.5010 14.92573860153202
AUTCUBE 2               
1 43681U 18084K   21233.77686613  .00000358  00000-0  40938-4 0  9992
2 43681  97.9322 359.7767 0009279 187.1387 172.9701 14.92135393153154
BEIDOU-3 G1             
1 43683U 18085A   21233.97536411 -.00000302  00000-0  00000+0 0  9998
2 43683   0.9661 218.7218 0003950  14.8492 228.0774  1.00272795 10400
COSMOS 2529 [GLONASS-M] 
1 43687U 18086A   21233.55878132  .00000056  00000-0  00000-0 0  9992
2 43687  64.4292 252.4190 0012003 264.0699 124.5097  2.13102190 21776
METOP-C                 
1 43689U 18087A   21234.07899671  .00000007  00000-0  22941-4 0  9992
2 43689  98.6810 293.3859 0002690 161.7986 198.3288 14.21503754144772
CICERO 10               
1 43690U 18088A   21233.76037494  .00001563  00000-0  67673-4 0  9996
2 43690  85.0408 154.5837 0014867 160.8753 199.3050 15.21442825154155
NABEO-1 & KICK STAGE    
1 43692U 18088C   21233.91577680  .00002823  00000-0  11932-3 0  9997
2 43692  85.0366 153.3687 0017167 141.1545 219.0934 15.22618569154193
IRVINE01                
1 43693U 18088D   21234.06765323  .00004922  00000-0  18813-3 0  9995
2 43693  85.0371 151.3413 0017742 134.6255 225.6440 15.26178038154448
PROXIMA I               
1 43694U 18088E   21233.52508886  .00001511  00000-0  61892-4 0  9992
2 43694  85.0347 152.1869 0020092 134.8283 225.4597 15.23164235154274
LEMUR-2-ZUPANSKI        
1 43695U 18088F   21233.85030788  .00003003  00000-0  12517-3 0  9997
2 43695  85.0342 152.7530 0016955 154.1429 206.0664 15.23124068154248
PROXIMA II              
1 43696U 18088G   21234.04903576  .00001577  00000-0  64669-4 0  9994
2 43696  85.0348 151.8500 0020197 133.0331 227.2608 15.23161840154357
LEMUR-2-CHANUSIAK       
1 43697U 18088H   21233.52679330  .00003121  00000-0  12685-3 0  9992
2 43697  85.0403 153.0039 0016483 135.2992 224.9583 15.23985120154284
GSAT-29                 
1 43698U 18089A   21233.88666326  .00000062  00000-0  00000-0 0  9990
2 43698   0.0573 289.2034 0001760 182.5580 232.8925  1.00271467 10132
ES'HAIL 2               
1 43700U 18090A   21233.88081964  .00000121  00000-0  00000-0 0  9991
2 43700   0.0139 111.3886 0002319  70.5594 131.3558  1.00274301 10029
BEIDOU-3 M17            
1 43706U 18093A   21233.64364595  .00000033  00000-0  00000-0 0  9990
2 43706  54.4597 242.2223 0011801 269.5562  90.3333  1.86231842 18756
BEIDOU-3 M18            
1 43707U 18093B   21233.68918250  .00000032  00000-0  00000-0 0  9997
2 43707  54.4593 242.2120 0009931 288.3175 193.0205  1.86232196 18740
TIANZHI 1               
1 43710U 18094A   21234.23290840  .00000537  00000-0  24988-4 0  9997
2 43710  97.4038 242.3067 0013244 336.7444  85.4525 15.24156889153228
SHIYAN 6 01 (SY-6 01)   
1 43711U 18094B   21234.20025587  .00000555  00000-0  28391-4 0  9991
2 43711  97.4140 237.9459 0012009 349.9670  10.1324 15.20657889152901
TIANPING 1A             
1 43712U 18094C   21233.94493101  .00001181  00000-0  50170-4 0  9999
2 43712  97.4032 242.3736 0012248 334.1242  85.4939 15.24991669153208
JIADING 1               
1 43713U 18094D   21234.22784209  .00001678  00000-0  70388-4 0  9998
2 43713  97.4024 242.6847 0013328 337.3894  84.5234 15.24817589153244
TIANPING 1B             
1 43714U 18094E   21234.07367955  .00000769  00000-0  34267-4 0  9993
2 43714  97.4040 242.2567 0011916 336.9814  95.2606 15.24394993153203
MOHAMMED VI-B           
1 43717U 18095A   21234.10592243  .00000042  00000-0  13097-4 0  9993
2 43717  97.9597 305.6986 0001448  92.5257 267.6130 14.77082210148363
HYSIS                   
1 43719U 18096A   21234.14984815  .00000106  00000-0  21413-4 0  9992
2 43719  97.8545 298.2996 0003663 333.6239  26.4798 14.78606859147312
HSAT                    
1 43720U 18096B   21233.87269981  .00007703  00000-0  24450-3 0  9996
2 43720  97.3888 312.7399 0014612  41.7850 318.4505 15.32849487152245
FACSAT-1                
1 43721U 18096C   21234.15932538  .00002603  00000-0  93994-4 0  9998
2 43721  97.3823 310.8033 0017653  43.2073  16.5049 15.29257107152169
CENTAURI-2              
1 43722U 18096D   21234.00304286  .00004051  00000-0  13948-3 0  9995
2 43722  97.3855 311.5855 0017094  42.3564 317.8993 15.30483419152185
FLOCK 3R-9              
1 43723U 18096E   21234.17792424  .00002142  00000-0  70902-4 0  9992
2 43723  97.3851 313.2212 0016124  39.5750 350.8074 15.32322686152307
FLOCK 3R-12             
1 43724U 18096F   21234.10020266  .00008616  00000-0  27721-3 0  9996
2 43724  97.3872 313.1907 0016248  40.9772 319.2687 15.32350657152294
FLOCK 3R-11             
1 43725U 18096G   21233.49797741  .00007834  00000-0  25230-3 0  9991
2 43725  97.3870 312.5939 0016210  42.7600 317.4899 15.32353489152202
FLOCK 3R-8              
1 43727U 18096J   21233.99908767  .00009944  00000-0  31943-3 0  9992
2 43727  97.3882 313.2877 0016427  42.4276 317.8233 15.32356468152286
KEPLER-1 (CASE)         
1 43729U 18096L   21233.47197443  .00004121  00000-0  13857-3 0  9994
2 43729  97.3877 312.0296 0017458  47.5434 312.7280 15.31236964152150
GLOBAL-1                
1 43730U 18096M   21233.86037181  .00001666  00000-0  62210-4 0  9990
2 43730  97.3861 311.1715 0020117  49.2564 311.0418 15.28636004152138
LEMUR-2-ORZULAK         
1 43731U 18096N   21233.64419929  .00004327  00000-0  14156-3 0  9993
2 43731  97.3901 313.1000 0019334  43.6658 316.6109 15.32062825152232
LEMUR-2-KOBYSZCZE       
1 43732U 18096P   21233.68448391  .00004436  00000-0  14449-3 0  9999
2 43732  97.3910 313.4221 0019265  43.4760 316.7997 15.32195159152251
FLOCK 3R-4              
1 43733U 18096Q   21234.16445341  .00002733  00000-0  89681-4 0  9995
2 43733  97.3889 313.5536 0019030  44.2106 345.8891 15.32318338152319
FLOCK 3R-3              
1 43734U 18096R   21234.19349394  .00003548  00000-0  11551-3 0  9995
2 43734  97.3874 313.6664 0019762  42.0296 346.8974 15.32342719152329
CICERO 8                
1 43737U 18096U   21233.89622427  .00004836  00000-0  15571-3 0  9992
2 43737  97.3854 313.7400 0020769  44.0764 316.2129 15.32487887152330
INNOSAT-2               
1 43738U 18096V   21234.09017801  .00005002  00000-0  15230-3 0  9998
2 43738  97.3912 315.8599 0021400  40.4429   6.1074 15.34239586152460
FLOCK 3R-6              
1 43741U 18096Y   21234.21361446  .00002511  00000-0  82725-4 0  9999
2 43741  97.3880 313.4118 0016311  41.4057 342.6918 15.32310255152323
FLOCK 3R-7              
1 43742U 18096Z   21234.20670749  .00006517  00000-0  21039-3 0  9998
2 43742  97.3864 313.4104 0015939  41.2472 344.5949 15.32350371152312
REAKTOR HELLO WORLD     
1 43743U 18096AA  21233.63396994  .00002118  00000-0  77324-4 0  9994
2 43743  97.3835 310.6511 0018198  49.8185 310.4645 15.29096405152098
HIBER-1                 
1 43744U 18096AB  21233.86180253  .00004644  00000-0  15747-3 0  9995
2 43744  97.3874 312.1116 0017384  47.1783 313.0916 15.30903033152198
LEMUR-2-DULY            
1 43745U 18096AC  21233.87298246  .00004748  00000-0  15456-3 0  9991
2 43745  97.3902 313.5544 0019232  42.2575 318.0144 15.32173702152293
LEMUR-2-VLADIMIR        
1 43746U 18096AD  21233.66159876  .00004704  00000-0  15151-3 0  9998
2 43746  97.3901 313.5168 0019072  42.9936 317.2792 15.32525497152297
FLOCK 3R-1              
1 43747U 18096AE  21233.65867331  .00007385  00000-0  23766-3 0  9999
2 43747  97.3889 313.1481 0019578  45.1638 315.1191 15.32338389152250
COSMOS 2530             
1 43751U 18097A   21234.05725855 -.00000000  00000-0 -72942-4 0  9994
2 43751  82.5119 234.7649 0017896 278.9597  80.9461 12.42895389123725
COSMOS 2531             
1 43752U 18097B   21234.08586346 -.00000006  00000-0 -11260-3 0  9999
2 43752  82.5160 235.1593 0015397 297.8944  62.0580 12.42867224123736
COSMOS 2532             
1 43753U 18097C   21234.11619078 -.00000008  00000-0 -12825-3 0  9993
2 43753  82.5100 234.7303 0017073 300.7062  59.2346 12.42884455123736
MINXSS-2                
1 43758U 18099A   21233.91353977  .00000141  00000-0  17595-4 0  9996
2 43758  97.6629 303.7394 0015387 184.5324 175.5760 14.96136463148308
SIRION PATHFINDER-2     
1 43759U 18099B   21234.09520109  .00000132  00000-0  17027-4 0  9990
2 43759  97.6605 303.2213 0014199 177.5947 182.5345 14.95574357148293
ELYSIUM STAR 2 & LFF    
1 43760U 18099C   21233.92497135  .00000894  00000-0  83734-4 0  9998
2 43760  97.6662 303.9054 0013823 182.3847 177.7311 14.96451664148301
